{"type":"FeatureCollection", "features": [
{"type":"Feature","geometry":{"type":"Polygon","coordinates":[[[-83.3208264051163,42.5290245215779],[-83.4374954030157,42.5260652077296],[-83.4349142497026,42.4679908282238],[-83.4747007873133,42.4665909715656],[-83.4758306228411,42.4868365702667],[-83.5158657600657,42.4944043242452],[-83.5551723916941,42.4931879343368],[-83.5519071655004,42.4351656983199],[-83.5496668611397,42.3926089131041],[-83.4318089378132,42.395984714737],[-83.4300377688878,42.3524648732781],[-83.3128246106763,42.3551796360762],[-83.3168263727598,42.4420349063641],[-83.3208264051163,42.5290245215779]]]},"properties":{"OBJECTID":1,"District":"08","Name":"Mallory McMorrow","Layout":"Landscape","Shape__Area":281819964.57366943,"Shape__Length":83118.115820609,"MGFVersion":"V26"}},
{"type":"Feature","geometry":{"type":"Polygon","coordinates":[[[-84.259749840076,42.6010133467319],[-84.3639692691249,42.6005539948914],[-84.3636029440642,42.6830833766274],[-84.4986287102081,42.6828620749729],[-84.523403299267,42.6901234589448],[-84.5380463953204,42.72593997648],[-84.5329442138537,42.7696816007368],[-84.8370848532331,42.7704791805882],[-85.0742449437994,42.770783806726],[-85.0755821558581,42.683588978779],[-85.0716091657711,42.4214278108734],[-84.9468967916486,42.4221820366613],[-84.600402621745,42.4219841009085],[-84.3647832134494,42.4221467335189],[-84.2582916270666,42.4247447894081],[-84.259749840076,42.6010133467319]]]},"properties":{"OBJECTID":2,"District":"21","Name":"Sarah Anthony","Layout":"Landscape","Shape__Area":2294365326.201332,"Shape__Length":215183.95564420513,"MGFVersion":"V26"}},
{"type":"Feature","geometry":{"type":"Polygon","coordinates":[[[-85.683855730537,44.1646246289813],[-85.9016846991421,44.1644972597616],[-86.0435027293672,44.1670881658102],[-86.0393599450861,44.050234354534],[-86.0378753859311,43.8161556178136],[-86.0396820666408,43.4856615881619],[-86.0389530620335,43.2935187666776],[-86.0279344043593,43.2934779240752],[-86.0270267781174,43.1182716734458],[-85.9074353190315,43.1189105557428],[-85.6801927518037,43.1166515911974],[-85.5781661126384,43.1171944996131],[-85.551312985434,43.111518557356],[-85.5457337605248,43.0281881405595],[-85.4308275723558,43.0287443585432],[-85.3123931934651,43.0297302844007],[-85.3119330315168,42.9439882454587],[-85.1936935343703,42.9439479854639],[-85.1935637443679,42.8571423325362],[-85.0749413702713,42.8570526092046],[-85.0742449437994,42.770783806726],[-84.8370848532331,42.7704791805882],[-84.8376199958138,43.0326412794755],[-84.8353052508694,43.2921996580432],[-84.8455727929621,43.2922310255477],[-84.8459615442484,43.466157760165],[-85.0641768821661,43.4660600113262],[-85.3705666599314,43.4683079593617],[-85.5623916231449,43.4682472613136],[-85.5624392275624,43.8156342162103],[-85.8003261558686,43.8143642503816],[-85.8014504883188,43.9877765929839],[-85.6819667794569,43.988249931233],[-85.683855730537,44.1646246289813]]]},"properties":{"OBJECTID":3,"District":"33","Name":"Rick Outman","Layout":"Portrait","Shape__Area":7566693617.470001,"Shape__Length":535795.7889018207,"MGFVersion":"V26"}},
{"type":"Feature","geometry":{"type":"Polygon","coordinates":[[[-85.4308275723558,43.0287443585432],[-85.5457337605248,43.0281881405595],[-85.551312985434,43.111518557356],[-85.5781661126384,43.1171944996131],[-85.6801927518037,43.1166515911974],[-85.9074353190315,43.1189105557428],[-86.0270267781174,43.1182716734458],[-86.0229079471568,42.9426542031018],[-85.9034477337635,42.9432818686086],[-85.8761076790427,42.9579218280252],[-85.8627725969708,42.9460589607074],[-85.8142899484927,42.9481197806086],[-85.7821770830792,42.9113226040553],[-85.762919376591,42.9276465730067],[-85.7222542984459,42.9373710826177],[-85.6762729998144,42.9632649994008],[-85.5774566173671,42.9619635737481],[-85.5507359396357,42.9410291152456],[-85.5458321545712,42.8544901363921],[-85.4290316366314,42.8562940004608],[-85.4308275723558,43.0287443585432]]]},"properties":{"OBJECTID":4,"District":"30","Name":"Mark E. Huizenga","Layout":"Landscape","Shape__Area":931838981.2803192,"Shape__Length":179872.95401733645,"MGFVersion":"V26"}},
{"type":"Feature","geometry":{"type":"Polygon","coordinates":[[[-83.0293431335562,42.5366428013115],[-83.1266347201052,42.5337985540274],[-83.1857280587751,42.5365124081676],[-83.2043893191217,42.5319074598812],[-83.2005241692944,42.4448388969741],[-83.1420605259663,42.446229062637],[-83.0147446113658,42.4485797800411],[-83.0277906076876,42.4917759129414],[-83.0293431335562,42.5366428013115]]]},"properties":{"OBJECTID":5,"District":"10","Name":"Paul Wojno","Layout":"Landscape","Shape__Area":149284459.6465149,"Shape__Length":53495.767814009174,"MGFVersion":"V26"}},
{"type":"Feature","geometry":{"type":"Polygon","coordinates":[[[-83.1857280587751,42.5365124081676],[-83.2062961203538,42.5571823863164],[-83.2140272157555,42.7095387373408],[-83.3719606504658,42.7047230432844],[-83.3562808986459,42.6760185627193],[-83.3264138392497,42.649354546934],[-83.3208264051163,42.5290245215779],[-83.3168263727598,42.4420349063641],[-83.2005241692944,42.4448388969741],[-83.2043893191217,42.5319074598812],[-83.1857280587751,42.5365124081676]]]},"properties":{"OBJECTID":6,"District":"07","Name":"Jeremy Moss","Layout":"Portrait","Shape__Area":297420404.70817566,"Shape__Length":90011.79547026352,"MGFVersion":"V26"}},
{"type":"Feature","geometry":{"type":"Polygon","coordinates":[[[-82.9109839615328,42.5694092072359],[-82.970859967965,42.5664428219171],[-82.9732916944678,42.6271791263886],[-82.9909391277615,42.6268199936817],[-82.9932810064528,42.6267681510828],[-83.0305609674733,42.5911670482653],[-83.0293431335562,42.5366428013115],[-83.0277906076876,42.4917759129414],[-83.0147446113658,42.4485797800411],[-82.9406121964018,42.4503727030242],[-82.9169899900385,42.4719196394246],[-82.9033694199855,42.5102989974826],[-82.9109839615328,42.5694092072359]]]},"properties":{"OBJECTID":7,"District":"11","Name":"Veronica Klinefelt","Layout":"Portrait","Shape__Area":148507714.1951599,"Shape__Length":62114.31266714966,"MGFVersion":"V26"}},
{"type":"Feature","geometry":{"type":"Polygon","coordinates":[[[-85.0742449437994,42.770783806726],[-85.0749413702713,42.8570526092046],[-85.1935637443679,42.8571423325362],[-85.1936935343703,42.9439479854639],[-85.3119330315168,42.9439882454587],[-85.3123931934651,43.0297302844007],[-85.4308275723558,43.0287443585432],[-85.4290316366314,42.8562940004608],[-85.5458321545712,42.8544901363921],[-85.5455642070519,42.7681389280915],[-85.663296085896,42.7680991869896],[-85.6629939541471,42.5943027323801],[-85.7808811692872,42.5947802594091],[-85.7793143375269,42.5079041592053],[-85.8963807099125,42.5063305028257],[-85.8949818828154,42.4198121609352],[-85.7646920673277,42.4207076609631],[-85.5323340257481,42.4215230737803],[-85.2995568059573,42.4193413703831],[-85.2969961787035,42.246116187544],[-85.4135330352685,42.2453047412722],[-85.4111922084698,42.0712642415667],[-84.9422312535612,42.0725708543918],[-84.9468967916486,42.4221820366613],[-85.0716091657711,42.4214278108734],[-85.0755821558581,42.683588978779],[-85.0742449437994,42.770783806726]]]},"properties":{"OBJECTID":8,"District":"18","Name":"Thomas A. Albert","Layout":"Portrait","Shape__Area":4111492078.1063232,"Shape__Length":393857.905440318,"MGFVersion":"V26"}},
{"type":"Feature","geometry":{"type":"Polygon","coordinates":[[[-83.699370900636,43.5947566951302],[-83.7218951967812,43.6127950093804],[-83.803612103807,43.6357950569499],[-83.8443879152859,43.6530091737439],[-83.8623014011394,43.6491886189996],[-83.9057665051674,43.6705232846343],[-83.9393158630918,43.7155245191096],[-83.9467056492102,43.7386685722959],[-84.0472172086587,43.7392469005127],[-84.3678456145992,43.7423985405051],[-84.3697769449647,43.4815732232633],[-84.2908259925682,43.4814181380261],[-84.0925648633637,43.4813305013608],[-84.0830385604299,43.4536602240809],[-84.0469272365747,43.4372438483957],[-84.0475750013825,43.4108299989514],[-84.0148865622182,43.393563577844],[-83.9767347477667,43.3842617159782],[-83.9555374102993,43.3932360436393],[-83.8178313840231,43.3926463355652],[-83.8176779367941,43.4790517233447],[-83.6988163662972,43.4789573167846],[-83.6995234570828,43.5889835134558],[-83.69950442211,43.5897039523124],[-83.6994919375545,43.590176454677],[-83.6994649890382,43.5911963304181],[-83.699370900636,43.5947566951302]]]},"properties":{"OBJECTID":9,"District":"35","Name":null,"Layout":"Landscape","Shape__Area":1547278853.6016388,"Shape__Length":214805.04342903665,"MGFVersion":"V26"}},
{"type":"Feature","geometry":{"type":"Polygon","coordinates":[[[-83.1496234246283,42.3518770498647],[-83.2159401390635,42.350622946483],[-83.2639214359352,42.3416922980129],[-83.2656555587296,42.3570554060474],[-83.3128246106763,42.3551796360762],[-83.310867013711,42.3117091024558],[-83.2911075640745,42.3120496661229],[-83.2897756504703,42.275896005766],[-83.3089992082223,42.2682296193233],[-83.3075386830792,42.2248929307181],[-83.2082811348894,42.228007547393],[-83.2004736598805,42.2233541426229],[-83.2024673995534,42.2463060143127],[-83.1699074493767,42.2645765264417],[-83.1404029109783,42.2990544736301],[-83.1569810782476,42.3369605325615],[-83.1496234246283,42.3518770498647]]]},"properties":{"OBJECTID":10,"District":"02","Name":"Sylvia A. Santana","Layout":"Portrait","Shape__Area":154527728.6847458,"Shape__Length":63967.094590663575,"MGFVersion":"V26"}},
{"type":"Feature","geometry":{"type":"MultiPolygon","coordinates":[[[[-82.6325693004788,42.627571332281],[-82.6356160703485,42.5942408440706],[-82.6024480999253,42.6028012796571],[-82.6325693004788,42.627571332281]]],[[[-82.5103624680075,42.6532261954681],[-82.5485435838929,42.6671735758011],[-82.6077110124605,42.6661494807974],[-82.6106003793983,42.7246689706267],[-82.8593392823383,42.7181326944664],[-82.8561304730007,42.630379048031],[-82.8868500177914,42.6291698586506],[-82.8985803127823,42.6140264138881],[-82.8986860560692,42.5711839961788],[-82.9109839615328,42.5694092072359],[-82.9033694199855,42.5102989974826],[-82.9169899900385,42.4719196394246],[-82.9406121964018,42.4503727030242],[-82.9513568501203,42.4358085761799],[-82.9104229045055,42.4190148530032],[-82.9223992802899,42.3948292959625],[-82.9468763594589,42.3869898863996],[-82.928433229749,42.3580913422954],[-82.8887599319539,42.3975446329316],[-82.868516795706,42.456394366042],[-82.881948039722,42.4664753636637],[-82.8738015585059,42.5243491692159],[-82.845114306552,42.5613476967856],[-82.8211231143327,42.5707818547473],[-82.7819904060404,42.5715055925932],[-82.7910033640267,42.6040250733127],[-82.8187990182551,42.6292844987414],[-82.7940296477711,42.65496014763],[-82.7602645762436,42.656571666907],[-82.7267752885806,42.682757292146],[-82.6793854654814,42.6889864650365],[-82.6292287045759,42.674088789274],[-82.6388154227063,42.638141139549],[-82.6142181882792,42.6229740228161],[-82.5871514402494,42.621966280253],[-82.6188027302258,42.5791940144492],[-82.605550231565,42.5485409667221],[-82.5234336537729,42.6073437341028],[-82.5103624680075,42.6532261954681]]]]},"properties":{"OBJECTID":11,"District":"12","Name":"Kevin Hertel","Layout":"Portrait","Shape__Area":365658272.44673157,"Shape__Length":383427.01070267067,"MGFVersion":"V26"}},
{"type":"Feature","geometry":{"type":"Polygon","coordinates":[[[-83.5437280062729,42.2624623684225],[-83.5475476391481,42.349217294462],[-83.6620629953551,42.3460313646274],[-83.6612469641535,42.3119026403154],[-83.6777606263431,42.2884732911898],[-83.751623009369,42.2847319873681],[-83.7839046556994,42.272661606984],[-83.7783834345343,42.2193558669421],[-83.8117159986657,42.2165599991961],[-83.8378420002756,42.2489049991889],[-83.8962530085339,42.2464369932108],[-83.8932828735739,42.1682364839962],[-84.0113290153909,42.1624085310027],[-84.134079002384,42.1601819993155],[-84.1319631639858,42.0715771123507],[-84.0081522953238,42.0735977739335],[-84.0046182345861,41.991092805706],[-83.8860683405752,41.9934626634079],[-83.886367361361,42.0009709653729],[-83.7716660300845,42.0026106573897],[-83.7739219414444,42.0824301599043],[-83.7118679033142,42.0836394630822],[-83.7102410229662,42.0693403526014],[-83.6620200147544,42.0700406817437],[-83.6615699815315,42.0845252522895],[-83.5393958437974,42.0855980198149],[-83.5437280062729,42.2624623684225]]]},"properties":{"OBJECTID":12,"District":"15","Name":"Jeff Irwin","Layout":"Landscape","Shape__Area":1050748653.3734894,"Shape__Length":196908.34858304873,"MGFVersion":"V26"}},
{"type":"Feature","geometry":{"type":"Polygon","coordinates":[[[-82.9877654728191,42.9823927523383],[-82.9962574873424,43.154098657176],[-83.0004295883204,43.2849126182504],[-83.1190269616561,43.2836797432015],[-83.1203959448845,43.3270493062953],[-83.2229623727307,43.3247968892859],[-83.2257182309129,43.4121812912481],[-83.4628587326643,43.4078228254365],[-83.4674026190511,43.7289088141209],[-83.4945022795915,43.6987009914048],[-83.522352765774,43.7176423876093],[-83.5491304509933,43.7001019232671],[-83.5948137142339,43.6506973556932],[-83.6581317930256,43.5956240623875],[-83.6995234570828,43.5889835134558],[-83.6988163662972,43.4789573167846],[-83.8176779367941,43.4790517233447],[-83.8178313840231,43.3926463355652],[-83.9555374102993,43.3932360436393],[-83.9767347477667,43.3842617159782],[-84.0148865622182,43.393563577844],[-84.0475750013825,43.4108299989514],[-84.0469272365747,43.4372438483957],[-84.0830385604299,43.4536602240809],[-84.0925648633637,43.4813305013608],[-84.2908259925682,43.4814181380261],[-84.2903513289344,43.3901891775366],[-84.1703739537718,43.3951475163243],[-84.1685930526713,43.157508391056],[-84.1536400191161,43.1289972681435],[-83.9290787916582,43.1327815363425],[-83.69458064636,43.1343270224954],[-83.6940505538778,43.0756671827407],[-83.6461684436292,43.076399600976],[-83.6159358715611,43.0475005515222],[-83.6198053854603,43.0086733220994],[-83.6042320000596,42.9971619986144],[-83.5757590004183,43.0047609991715],[-83.5737519648798,42.9614744283823],[-83.4567807004615,42.9631368971819],[-83.4568829895556,42.9687137382883],[-83.2603539594411,42.9718688840063],[-83.0940019619916,42.9765220673451],[-82.9877654728191,42.9823927523383]]]},"properties":{"OBJECTID":13,"District":"26","Name":"Kevin Daley","Layout":"Landscape","Shape__Area":4375462895.141907,"Shape__Length":459341.6602882742,"MGFVersion":"V26"}},
{"type":"Feature","geometry":{"type":"Polygon","coordinates":[[[-84.0472172086587,43.7392469005127],[-84.0454087127739,43.996974328568],[-84.1663769877292,43.9969007656254],[-84.1661070471623,44.1617880282102],[-84.3680385820011,44.1605384039468],[-84.770914696007,44.1607237230255],[-85.2067235191806,44.1649188200842],[-85.683855730537,44.1646246289813],[-85.6819667794569,43.988249931233],[-85.8014504883188,43.9877765929839],[-85.8003261558686,43.8143642503816],[-85.5624392275624,43.8156342162103],[-85.5623916231449,43.4682472613136],[-85.3705666599314,43.4683079593617],[-85.0641768821661,43.4660600113262],[-84.8459615442484,43.466157760165],[-84.8455727929621,43.2922310255477],[-84.8353052508694,43.2921996580432],[-84.8376199958138,43.0326412794755],[-84.6015260942866,43.0313736534707],[-84.6005249000519,43.1177143611357],[-84.3677949715715,43.1179378430939],[-84.3678909200355,43.1284515159321],[-84.1536400191161,43.1289972681435],[-84.1685930526713,43.157508391056],[-84.1703739537718,43.3951475163243],[-84.2903513289344,43.3901891775366],[-84.2908259925682,43.4814181380261],[-84.3697769449647,43.4815732232633],[-84.3678456145992,43.7423985405051],[-84.0472172086587,43.7392469005127]]]},"properties":{"OBJECTID":14,"District":"34","Name":"Roger Hauck","Layout":"Landscape","Shape__Area":11217264502.092697,"Shape__Length":569405.1373521921,"MGFVersion":"V26"}},
{"type":"Feature","geometry":{"type":"Polygon","coordinates":[[[-83.0404676226269,42.3276186548897],[-83.05803559094,42.3681503111681],[-83.0987009891969,42.3838640036127],[-83.1219315727674,42.4174816043658],[-83.1408360473307,42.4171480134169],[-83.1851751582572,42.4165247241781],[-83.1829725328702,42.3729349727206],[-83.1511420083302,42.3736353576608],[-83.1496234246283,42.3518770498647],[-83.1569810782476,42.3369605325615],[-83.1404029109783,42.2990544736301],[-83.1699074493767,42.2645765264417],[-83.2024673995534,42.2463060143127],[-83.2004736598805,42.2233541426229],[-83.1809374180623,42.2210724136874],[-83.1795931541681,42.18501366576],[-83.1544197413139,42.1854093839918],[-83.1285190884394,42.2477866881246],[-83.1033609725032,42.287588755611],[-83.0784667062906,42.3128035379832],[-83.0404676226269,42.3276186548897]]]},"properties":{"OBJECTID":15,"District":"01","Name":"Erika Geiss","Layout":"Portrait","Shape__Area":149101606.77576447,"Shape__Length":89548.03440132811,"MGFVersion":"V26"}},
{"type":"Feature","geometry":{"type":"Polygon","coordinates":[[[-83.6771108321944,42.6062471001974],[-83.6864951323628,42.7833512343528],[-83.5682577849827,42.7859963013981],[-83.5709860366995,42.8732734513975],[-83.92716391956,42.8683434992992],[-84.1617788200243,42.8648816544385],[-84.1581892528399,42.7766394085169],[-84.1502793648468,42.6852004417419],[-84.2635505123225,42.6863460865999],[-84.259749840076,42.6010133467319],[-84.2582916270666,42.4247447894081],[-83.9446499492669,42.4241494098269],[-83.6647811772403,42.4311708168123],[-83.6771108321944,42.6062471001974]]]},"properties":{"OBJECTID":16,"District":"22","Name":"Lana Theis","Layout":"Landscape","Shape__Area":2262445884.7887115,"Shape__Length":214649.80491802137,"MGFVersion":"V26"}},
{"type":"Feature","geometry":{"type":"Polygon","coordinates":[[[-82.9932810064528,42.6267681510828],[-82.9929715090596,42.627369761032],[-83.0726181315803,42.639176574636],[-83.093831895252,42.6757153654697],[-83.0954364225446,42.7124908543282],[-83.2140272157555,42.7095387373408],[-83.2062961203538,42.5571823863164],[-83.1857280587751,42.5365124081676],[-83.1266347201052,42.5337985540274],[-83.0293431335562,42.5366428013115],[-83.0305609674733,42.5911670482653],[-82.9932810064528,42.6267681510828]]]},"properties":{"OBJECTID":17,"District":"09","Name":"Michael Webber","Layout":"Portrait","Shape__Area":251678453.98130798,"Shape__Length":83416.52778952206,"MGFVersion":"V26"}},
{"type":"Feature","geometry":{"type":"Polygon","coordinates":[[[-83.1408360473307,42.4171480134169],[-83.1420605259663,42.446229062637],[-83.2005241692944,42.4448388969741],[-83.3168263727598,42.4420349063641],[-83.3128246106763,42.3551796360762],[-83.2656555587296,42.3570554060474],[-83.2639214359352,42.3416922980129],[-83.2159401390635,42.350622946483],[-83.1496234246283,42.3518770498647],[-83.1511420083302,42.3736353576608],[-83.1829725328702,42.3729349727206],[-83.1851751582572,42.4165247241781],[-83.1408360473307,42.4171480134169]]]},"properties":{"OBJECTID":18,"District":"06","Name":"Mary Cavanagh","Layout":"Landscape","Shape__Area":129471138.20727539,"Shape__Length":57633.507520719344,"MGFVersion":"V26"}},
{"type":"Feature","geometry":{"type":"Polygon","coordinates":[[[-82.928433229749,42.3580913422954],[-82.9468763594589,42.3869898863996],[-82.9223992802899,42.3948292959625],[-82.9104229045055,42.4190148530032],[-82.9513568501203,42.4358085761799],[-82.9406121964018,42.4503727030242],[-83.0147446113658,42.4485797800411],[-83.1420605259663,42.446229062637],[-83.1408360473307,42.4171480134169],[-83.1219315727674,42.4174816043658],[-83.0987009891969,42.3838640036127],[-83.05803559094,42.3681503111681],[-83.0404676226269,42.3276186548897],[-82.9733633645969,42.3553276464618],[-82.928433229749,42.3580913422954]]]},"properties":{"OBJECTID":19,"District":"03","Name":"Stephanie Chang","Layout":"Landscape","Shape__Area":162051909.25080872,"Shape__Length":78239.98839005928,"MGFVersion":"V26"}},
{"type":"Feature","geometry":{"type":"Polygon","coordinates":[[[-84.5929360380647,42.0717602171744],[-84.599785169353,42.2531226164995],[-84.600402621745,42.4219841009085],[-84.9468967916486,42.4221820366613],[-84.9422312535612,42.0725708543918],[-85.4111922084698,42.0712642415667],[-85.7629433396573,42.0693269690919],[-86.2229395756179,42.0714835643486],[-86.2228206847144,41.9845930766758],[-86.5627390695097,41.9859041268271],[-86.5842143025547,41.9388216088099],[-86.6217810087089,41.8918272001424],[-86.6807946669938,41.8431753008944],[-86.7777063487464,41.7842394130192],[-86.8249020602305,41.7603056531835],[-86.4435443548633,41.7595555356954],[-86.1084488570089,41.7606971571809],[-85.8006568535597,41.7590644544106],[-84.8058854159473,41.7601710768849],[-84.8059962706543,41.6961176018118],[-84.7087109226029,41.6991205231402],[-84.7094388065976,41.9999341187758],[-84.5928050636688,41.9994969926568],[-84.5929360380647,42.0717602171744]]]},"properties":{"OBJECTID":20,"District":"17","Name":"Jonathan Lindsey","Layout":"Landscape","Shape__Area":6491460665.91581,"Shape__Length":528891.403240483,"MGFVersion":"V26"}},
{"type":"Feature","geometry":{"type":"MultiPolygon","coordinates":[[[[-83.1419920899367,42.1696525552141],[-83.158044632766,42.1707725450819],[-83.174687923137,42.1092029359642],[-83.151714084767,42.0998025553651],[-83.1378910891142,42.135536555488],[-83.1419920899367,42.1696525552141]]],[[[-83.3089992082223,42.2682296193233],[-83.3480945965516,42.2674631159883],[-83.3489388920428,42.2891855141721],[-83.4274359308493,42.2874652145151],[-83.4265341917954,42.2653512061341],[-83.5437280062729,42.2624623684225],[-83.5393958437974,42.0855980198149],[-83.420631385461,42.0877844884065],[-83.4207610427957,42.0935682980784],[-83.2950583091013,42.0942293780325],[-83.2675934972069,42.0690759542696],[-83.2142149673166,42.042573266448],[-83.1919193850447,42.0406595258046],[-83.1899234762314,42.1108056379715],[-83.1805021576716,42.1167048471158],[-83.1652842754423,42.1715957178875],[-83.1544197413139,42.1854093839918],[-83.1795931541681,42.18501366576],[-83.1809374180623,42.2210724136874],[-83.2004736598805,42.2233541426229],[-83.2082811348894,42.228007547393],[-83.3075386830792,42.2248929307181],[-83.3089992082223,42.2682296193233]]]]},"properties":{"OBJECTID":21,"District":"04","Name":"Darrin Camilleri","Layout":"Landscape","Shape__Area":606372793.6334763,"Shape__Length":203256.50055589332,"MGFVersion":"V26"}},
{"type":"Feature","geometry":{"type":"Polygon","coordinates":[[[-86.0270267781174,43.1182716734458],[-86.2719148738206,43.1183653251181],[-86.2337559575804,43.0194556656533],[-86.2203060256791,42.9556710595508],[-86.2107985489112,42.8627585115672],[-86.2065963862939,42.7095355196591],[-86.2114677344748,42.6813995583168],[-86.0148020029688,42.6820677309686],[-86.0181380920199,42.7689151514626],[-85.7824977737111,42.7682000884003],[-85.7821063682096,42.8562963534976],[-85.7821770830792,42.9113226040553],[-85.8142899484927,42.9481197806086],[-85.8627725969708,42.9460589607074],[-85.8761076790427,42.9579218280252],[-85.9034477337635,42.9432818686086],[-86.0229079471568,42.9426542031018],[-86.0270267781174,43.1182716734458]]]},"properties":{"OBJECTID":22,"District":"31","Name":"Roger Victory","Layout":"Portrait","Shape__Area":1174105394.8265,"Shape__Length":174752.04551135155,"MGFVersion":"V26"}},
{"type":"Feature","geometry":{"type":"Polygon","coordinates":[[[-82.8593392823383,42.7181326944664],[-82.8630553033405,42.8066659963716],[-82.9801288252105,42.8049319602214],[-82.9836467633091,42.8937414025674],[-83.1028909095178,42.8886467687244],[-83.0954364225446,42.7124908543282],[-83.093831895252,42.6757153654697],[-83.0726181315803,42.639176574636],[-82.9929715090596,42.627369761032],[-82.9909391277615,42.6268199936817],[-82.9732916944678,42.6271791263886],[-82.970859967965,42.5664428219171],[-82.9109839615328,42.5694092072359],[-82.8986860560692,42.5711839961788],[-82.8985803127823,42.6140264138881],[-82.8868500177914,42.6291698586506],[-82.8561304730007,42.630379048031],[-82.8593392823383,42.7181326944664]]]},"properties":{"OBJECTID":23,"District":"24","Name":"Ruth A. Johnson","Layout":"Portrait","Shape__Area":500116520.64331055,"Shape__Length":119907.44159639627,"MGFVersion":"V26"}},
{"type":"Feature","geometry":{"type":"Polygon","coordinates":[[[-85.5458321545712,42.8544901363921],[-85.7821063682096,42.8562963534976],[-85.7824977737111,42.7682000884003],[-86.0181380920199,42.7689151514626],[-86.0148020029688,42.6820677309686],[-86.2114677344748,42.6813995583168],[-86.2291348762848,42.635799657456],[-86.2261076593851,42.5909415898187],[-86.2344044125058,42.5684663956392],[-86.2470776117829,42.4909688706886],[-86.2622658165615,42.4417606280005],[-86.2960035054566,42.36130182816],[-86.3497175129715,42.2641400256728],[-86.3881681621409,42.2137524895787],[-86.4805242160762,42.1216293440618],[-86.5627390695097,41.9859041268271],[-86.2228206847144,41.9845930766758],[-86.2229395756179,42.0714835643486],[-85.7629433396573,42.0693269690919],[-85.7646047287178,42.1572543092824],[-85.8776690530511,42.1572064854573],[-85.878689870561,42.2448213822873],[-85.7660664542048,42.2446928617377],[-85.7646920673277,42.4207076609631],[-85.8949818828154,42.4198121609352],[-85.8963807099125,42.5063305028257],[-85.7793143375269,42.5079041592053],[-85.7808811692872,42.5947802594091],[-85.6629939541471,42.5943027323801],[-85.663296085896,42.7680991869896],[-85.5455642070519,42.7681389280915],[-85.5458321545712,42.8544901363921]]]},"properties":{"OBJECTID":24,"District":"20","Name":"Aric Nesbitt","Layout":"Portrait","Shape__Area":3682190974.5469666,"Shape__Length":389886.04397179827,"MGFVersion":"V26"}},
{"type":"Feature","geometry":{"type":"Polygon","coordinates":[[[-82.5103624680075,42.6532261954681],[-82.5108507925084,42.6649921296791],[-82.4676667910897,42.761906284976],[-82.4825735245923,42.8086436646765],[-82.4683643501535,42.8573282597098],[-82.4703454767873,42.8874093375215],[-82.4562493433182,42.9251768003458],[-82.4134736722974,42.9768874314343],[-82.4265401740586,43.0172395648714],[-82.4860462486578,43.1023826608904],[-82.5085907439795,43.1971620210816],[-82.5222391432313,43.2237448016555],[-82.527564064385,43.2607813401234],[-82.5326201963419,43.3839544223755],[-82.5375705953837,43.4328643908493],[-82.5854200476549,43.5436651569829],[-82.6007728070663,43.6048754289627],[-82.5970110817375,43.6146861899896],[-82.6100781533758,43.6982968027424],[-82.6150458710003,43.7794617432363],[-82.6341856884286,43.8324289256501],[-82.6556470024192,43.8686293236103],[-82.6797013819438,43.8830916706113],[-82.6822448798836,43.9072211729053],[-82.7194482704779,43.9532268479902],[-82.7300781488684,43.9774758348439],[-82.7658622022176,44.0087665258897],[-82.8172760739582,44.0334684175141],[-82.8759932644077,44.0449846729868],[-82.9044345427109,44.0617167423076],[-82.9647535025572,44.0683840668276],[-82.9901261004216,44.0490924806169],[-83.0243746968279,44.0450946856267],[-83.0540980138717,44.0092106590217],[-83.0757926193958,44.001227836027],[-83.11230706522,44.0045385343615],[-83.1456938197598,43.9889783603121],[-83.2349424591448,43.9794331925863],[-83.2611095538792,43.970234443356],[-83.2819178213641,43.9383060700912],[-83.336674550494,43.9147002856247],[-83.3255564361704,43.8828703415497],[-83.3583958043463,43.8571820446675],[-83.3838150711137,43.8528271263373],[-83.3979027782571,43.8153416728518],[-83.431701361728,43.7845498196126],[-83.4674026190511,43.7289088141209],[-83.4628587326643,43.4078228254365],[-83.2257182309129,43.4121812912481],[-83.2229623727307,43.3247968892859],[-83.1203959448845,43.3270493062953],[-83.1190269616561,43.2836797432015],[-83.0004295883204,43.2849126182504],[-82.9962574873424,43.154098657176],[-82.9877654728191,42.9823927523383],[-82.9836467633091,42.8937414025674],[-82.9801288252105,42.8049319602214],[-82.8630553033405,42.8066659963716],[-82.8593392823383,42.7181326944664],[-82.6106003793983,42.7246689706267],[-82.6077110124605,42.6661494807974],[-82.5485435838929,42.6671735758011],[-82.5103624680075,42.6532261954681]]]},"properties":{"OBJECTID":25,"District":"25","Name":"Dan Lauwers","Layout":"Portrait","Shape__Area":7643387880.578873,"Shape__Length":722898.1294477511,"MGFVersion":"V26"}},
{"type":"Feature","geometry":{"type":"Polygon","coordinates":[[[-83.92716391956,42.8683434992992],[-83.9298672554886,42.9497906138446],[-83.9290787916582,43.1327815363425],[-84.1536400191161,43.1289972681435],[-84.3678909200355,43.1284515159321],[-84.3677949715715,43.1179378430939],[-84.6005249000519,43.1177143611357],[-84.6015260942866,43.0313736534707],[-84.8376199958138,43.0326412794755],[-84.8370848532331,42.7704791805882],[-84.5329442138537,42.7696816007368],[-84.5380463953204,42.72593997648],[-84.523403299267,42.6901234589448],[-84.4986287102081,42.6828620749729],[-84.3636029440642,42.6830833766274],[-84.3639692691249,42.6005539948914],[-84.259749840076,42.6010133467319],[-84.2635505123225,42.6863460865999],[-84.1502793648468,42.6852004417419],[-84.1581892528399,42.7766394085169],[-84.1617788200243,42.8648816544385],[-83.92716391956,42.8683434992992]]]},"properties":{"OBJECTID":26,"District":"28","Name":"Sam Singh","Layout":"Landscape","Shape__Area":2895810387.986435,"Shape__Length":271359.6239659821,"MGFVersion":"V26"}},
{"type":"Feature","geometry":{"type":"Polygon","coordinates":[[[-82.9836467633091,42.8937414025674],[-82.9877654728191,42.9823927523383],[-83.0940019619916,42.9765220673451],[-83.2603539594411,42.9718688840063],[-83.4568829895556,42.9687137382883],[-83.4567807004615,42.9631368971819],[-83.5737519648798,42.9614744283823],[-83.5709860366995,42.8732734513975],[-83.5682577849827,42.7859963013981],[-83.6864951323628,42.7833512343528],[-83.6771108321944,42.6062471001974],[-83.4418546041822,42.6147404563023],[-83.4443740169526,42.6691462689128],[-83.3562808986459,42.6760185627193],[-83.3719606504658,42.7047230432844],[-83.2140272157555,42.7095387373408],[-83.0954364225446,42.7124908543282],[-83.1028909095178,42.8886467687244],[-82.9836467633091,42.8937414025674]]]},"properties":{"OBJECTID":27,"District":"23","Name":"Jim Runestad","Layout":"Landscape","Shape__Area":1524936166.4801636,"Shape__Length":201629.40628699737,"MGFVersion":"V26"}},
{"type":"Feature","geometry":{"type":"Polygon","coordinates":[[[-83.5496668611397,42.3926089131041],[-83.5519071655004,42.4351656983199],[-83.6647811772403,42.4311708168123],[-83.9446499492669,42.4241494098269],[-84.2582916270666,42.4247447894081],[-84.3647832134494,42.4221467335189],[-84.600402621745,42.4219841009085],[-84.599785169353,42.2531226164995],[-84.5929360380647,42.0717602171744],[-84.1798349189714,42.0737906242016],[-84.1319631639858,42.0715771123507],[-84.134079002384,42.1601819993155],[-84.0113290153909,42.1624085310027],[-83.8932828735739,42.1682364839962],[-83.8962530085339,42.2464369932108],[-83.8378420002756,42.2489049991889],[-83.8117159986657,42.2165599991961],[-83.7783834345343,42.2193558669421],[-83.7839046556994,42.272661606984],[-83.751623009369,42.2847319873681],[-83.6777606263431,42.2884732911898],[-83.6612469641535,42.3119026403154],[-83.6620629953551,42.3460313646274],[-83.5475476391481,42.349217294462],[-83.5496668611397,42.3926089131041]]]},"properties":{"OBJECTID":28,"District":"14","Name":"Sue Shink","Layout":"Landscape","Shape__Area":2500191347.0050735,"Shape__Length":265260.6139646692,"MGFVersion":"V26"}},
{"type":"Feature","geometry":{"type":"MultiPolygon","coordinates":[[[[-86.6502920905686,45.5833124901105],[-86.650081843651,45.5448725625751],[-86.6225128354134,45.5638606884501],[-86.6502920905686,45.5833124901105]]],[[[-86.6777497629618,46.5605153165747],[-86.7088338104035,46.5451437816259],[-86.7020763067702,46.5117890529061],[-86.6845023956684,46.4993929907398],[-86.6875951063787,46.4562284565791],[-86.6402134980369,46.4720339951174],[-86.6306107644096,46.5364059320014],[-86.653609068976,46.5606870997691],[-86.6777497629618,46.5605153165747]]],[[[-84.4893121169529,46.4385736844756],[-84.5522664602874,46.4181644966597],[-84.5977584586844,46.4152234940491],[-84.5952437282291,46.4431978454445],[-84.6308129815269,46.4850046951495],[-84.6786845774568,46.4878398557633],[-84.7280666940611,46.4666049936255],[-84.7865843981186,46.4491488943125],[-84.83926210068,46.4462924137361],[-84.8617040426484,46.4701680493648],[-84.9185359430692,46.4686773402792],[-84.9467589869433,46.4879567794604],[-84.9643124264248,46.4767865988799],[-85.0129511268404,46.4794483265427],[-85.0489964004605,46.5029624382866],[-85.0562568698688,46.5267978688502],[-85.0272851674633,46.543425288212],[-85.0369250008188,46.6068945046628],[-85.0268591188658,46.6993308030762],[-84.9848371031951,46.7474998362475],[-84.9706491158467,46.7733644169187],[-85.0629073820877,46.7580319570028],[-85.153781450833,46.7650132173645],[-85.2614962118726,46.7517399766078],[-85.3612401196567,46.7168002830098],[-85.4833249835533,46.6801903147902],[-85.5766673012094,46.6739396437129],[-85.6557640040801,46.6801987856086],[-85.7539026619903,46.6774440841666],[-85.8805863890929,46.6907741302421],[-85.9587044340271,46.6724195938351],[-85.979094463803,46.675550751276],[-86.1020596565465,46.6543146932695],[-86.1377396674553,46.6727189326695],[-86.188202021153,46.6537760907709],[-86.3501926901091,46.5778253120605],[-86.4441904360117,46.5480620503899],[-86.4615975995522,46.5534741607615],[-86.5328509316278,46.4995988030625],[-86.5511372500756,46.4956073749707],[-86.6399398758662,46.4110413735932],[-86.6622184740462,46.4184637187956],[-86.6583126165639,46.4439256052202],[-86.7034958531108,46.4393676111387],[-86.731051391296,46.4717342815165],[-86.7878429688035,46.4778612415142],[-86.8155566316227,46.43798718644],[-86.876932574046,46.437866514739],[-86.8900759506219,46.4593815081465],[-86.9304192920978,46.4650442355191],[-86.9649002120109,46.5162911048292],[-87.0175787252574,46.5336795859543],[-87.0784196791731,46.5158329601898],[-87.1088990067262,46.4960735214813],[-87.1801094615825,46.4954805011527],[-87.2384327699079,46.4882853192503],[-87.2825659481569,46.4892781539833],[-87.3594100132243,46.5034520121201],[-87.3942064528571,46.5335049139124],[-87.3793334798267,46.5446155118301],[-87.3875095464952,46.5850812732819],[-87.4330053242295,46.5904597045562],[-87.4639698828478,46.6141183953661],[-87.4685858456953,46.6358155120228],[-87.5038503924873,46.6481608952581],[-87.5297038406937,46.6941626470619],[-87.5789942972832,46.7254927917742],[-87.5939784518259,46.7823340957377],[-87.6333062707543,46.8123008613896],[-87.7328171711437,46.8327135487687],[-87.7408730906816,46.8647396650961],[-87.7734322212491,46.8644142313116],[-87.7840424380112,46.8801304082079],[-87.8179338631911,46.8908177650649],[-87.8472393599598,46.8841841995613],[-87.9009824343752,46.9097621239204],[-87.9897103541497,46.9048988917963],[-88.0817019947664,46.9205620056557],[-88.1268053156896,46.9096580305525],[-88.1842318501906,46.9046152757206],[-88.2360809240222,46.892461576914],[-88.1472511904604,46.9467989948498],[-88.1448909478743,46.967013953912],[-88.2392868373642,46.9321399300697],[-88.3103069738819,46.8898061026453],[-88.3494249823335,46.8584574441806],[-88.3905645072545,46.8667247491501],[-88.3811107057044,46.8385576583581],[-88.4334739249723,46.7933405581593],[-88.4517072861589,46.7660817598303],[-88.4766764494537,46.7495182374294],[-88.4999026874856,46.7587010456594],[-88.481972584754,46.7827185323419],[-88.4627210488458,46.7863263617625],[-88.4843426264268,46.8322936552232],[-88.4755108372885,46.8875918745425],[-88.4582766205841,46.9164065299372],[-88.4447450390576,46.9714595720948],[-88.405546432619,46.9819961177482],[-88.3745165858591,47.0116150516568],[-88.3486077287514,47.078061120345],[-88.296841990687,47.0994524355277],[-88.2888174770853,47.1305969341877],[-88.2713530574378,47.1438935923572],[-88.249473672844,47.1360521907305],[-88.2300001143169,47.1981549813824],[-88.2134944230115,47.2089183694978],[-88.1643742931447,47.2154866039845],[-88.1208870698806,47.252553589702],[-88.0967587820902,47.261252353169],[-88.0599607490956,47.2956569651199],[-88.016641352314,47.3058331127792],[-87.9376122321695,47.3435022721399],[-87.9649862731939,47.3668015211285],[-87.9574261011744,47.3871134630409],[-87.8488149052572,47.3950526375432],[-87.8139720859772,47.384869065804],[-87.7542626368586,47.4046930390779],[-87.7185159810687,47.4008220500379],[-87.7178006861764,47.4424255187008],[-87.8009331556628,47.4734254412208],[-87.875382450956,47.4674220110793],[-87.9015842417413,47.4767486868704],[-87.9757838647803,47.4802916271929],[-88.0385194712133,47.4697089154896],[-88.1801838156535,47.4579970007711],[-88.2176044351313,47.4496574257217],[-88.247427182779,47.4276169106135],[-88.2859869725377,47.4220476422611],[-88.4250556864168,47.3690615934742],[-88.4593144059767,47.3399033010159],[-88.5038210657958,47.2913991418501],[-88.5760332652715,47.2447258474562],[-88.6138303162919,47.2382405094255],[-88.6826184238271,47.2142748819745],[-88.7333105262426,47.1833157571403],[-88.7646300784706,47.1554464512719],[-88.8197766845647,47.1389551699119],[-88.8460330448013,47.1145550252648],[-88.888119694635,47.1012311588953],[-88.9040299141624,47.0857839230846],[-88.9356749123321,47.0285124466111],[-88.9703483453394,47.002894872573],[-89.0077856322154,46.9942688312193],[-89.037819905103,46.9997619075975],[-89.0609906759496,46.9892052085534],[-89.1058043931841,46.9862211792393],[-89.118127642621,46.9940051506275],[-89.1745623542006,46.9630309224903],[-89.2026259646342,46.9304045006073],[-89.2303074070642,46.9115825293601],[-89.3260734677503,46.8762259660984],[-89.3485602200114,46.8641369590284],[-89.4228892280523,46.841764556188],[-89.474151375587,46.8372694299025],[-89.5139760499856,46.8416836805952],[-89.6290359175197,46.8184600769305],[-89.6667644594618,46.8326093506961],[-89.7153609950211,46.8308779211867],[-89.7862925447766,46.8192076146893],[-89.8348860048503,46.8033204586117],[-89.9183702960655,46.7402793634087],[-89.9778973286878,46.708552734304],[-90.0294993826962,46.6738781255155],[-90.1212454133257,46.6515558139721],[-90.1612657614231,46.6462272581335],[-90.2633028725599,46.6194045470741],[-90.3094447192417,46.6028504655648],[-90.329995121162,46.6088894172083],[-90.4173315119457,46.5657574011368],[-90.3865576086681,46.5336657639269],[-90.3496692438033,46.5376536099532],[-90.3365443484929,46.5542357302976],[-90.3105782344718,46.5394631208991],[-90.3168151683845,46.5170298864744],[-90.275473962528,46.5181927015152],[-90.2646289575116,46.5068501350724],[-90.2153720467807,46.5000391775544],[-90.134663824636,46.3735466929395],[-90.1169774185019,46.3363623704323],[-89.091814770555,46.1383492961594],[-88.8510784181325,46.0404662352434],[-88.7825076509547,46.0161386298127],[-88.7396712783333,46.0274231348071],[-88.678867809939,46.0135946087126],[-88.6586045557017,45.9892962962795],[-88.6169537917821,45.9877413900762],[-88.5651266773412,46.0157291750175],[-88.5074800479499,46.0185160824096],[-88.4979745322177,45.9957973670431],[-88.4543188485319,45.9976555495448],[-88.4234930819067,45.9820718873405],[-88.3808905253505,45.991812537905],[-88.2917321458459,45.9511610966248],[-88.2550111408913,45.9635950542918],[-88.2371232411546,45.9483051389153],[-88.197126091709,45.95321283576],[-88.1264194592691,45.9256081656753],[-88.1024612008074,45.9215464964932],[-88.1017554706453,45.8831914962037],[-88.070483128875,45.8743290806184],[-88.1324560445975,45.8241563995984],[-88.0947540877717,45.7857551447898],[-88.0504092060185,45.7811025643437],[-87.9934989421454,45.7956380383769],[-87.9602908492381,45.7573830266318],[-87.8809141677708,45.7550168636875],[-87.8373924451899,45.7168798872352],[-87.813336673185,45.7116741033852],[-87.7823938448172,45.672963749303],[-87.8239851577014,45.662665492769],[-87.7744894342963,45.6015442529944],[-87.8069983267296,45.543582895463],[-87.7926704972377,45.4996125161235],[-87.8132618239199,45.4633366138456],[-87.8561222282186,45.4408625663394],[-87.8498606727788,45.4099140456695],[-87.8783321446748,45.352103836032],[-87.7983567426935,45.3538486354216],[-87.7539396761627,45.3493646275362],[-87.7187182032768,45.3787900752026],[-87.6875422421389,45.3893675183643],[-87.6590118691918,45.3699344692095],[-87.6479358985387,45.3410057217079],[-87.6872721441652,45.2984785363146],[-87.7103220629063,45.2593408024518],[-87.7352687090615,45.1776780718067],[-87.6911420527145,45.1489743360035],[-87.6613820984875,45.1090257240731],[-87.5983230280223,45.0960431891775],[-87.6117799207899,45.1179509383569],[-87.6003519075633,45.1500644566088],[-87.5444756695262,45.1938486779213],[-87.4362889065866,45.2951262384975],[-87.4302325813632,45.31875792358],[-87.4093840111545,45.331125604073],[-87.3937462029124,45.3674624026782],[-87.3259082735275,45.4302268699952],[-87.3321532389146,45.4491767622605],[-87.2892607280297,45.5003986826952],[-87.2636696626837,45.551287648366],[-87.2394855265719,45.5757412705248],[-87.1973304400698,45.638333576492],[-87.1718503601174,45.6621005124603],[-87.1272966332143,45.682399085229],[-87.07333665543,45.7166712722663],[-87.0457375557686,45.7434568513984],[-87.0643022663437,45.7558694170469],[-87.0576864375451,45.8124943072866],[-87.0398531508225,45.8345147362221],[-87.0027644802377,45.8455922549999],[-87.0029209552693,45.873187789192],[-86.9735967724828,45.915773313449],[-86.9536657867348,45.9078817800647],[-86.9486404744659,45.8753108933096],[-86.9861918935864,45.8376091197945],[-86.9893965965543,45.8118092697706],[-86.9746907571382,45.7534959596623],[-86.9847011193094,45.7058677754825],[-86.9671722466586,45.6846387944914],[-86.9432477908849,45.7017169348835],[-86.8715885976426,45.709230199322],[-86.8427514173941,45.7196090751987],[-86.8428315573231,45.741833119708],[-86.8237192651158,45.7548108524634],[-86.773025757718,45.8123207100926],[-86.7821206726117,45.8606904400258],[-86.742823167186,45.8649868309671],[-86.7202997174706,45.8445940204635],[-86.6493646516215,45.8352931024352],[-86.6333881378002,45.8598748560045],[-86.5990391486451,45.8764916960112],[-86.5835772375012,45.8983174497271],[-86.5397001721299,45.8892500504517],[-86.5274726818663,45.8533180852929],[-86.5547606436503,45.8328310924131],[-86.5625947784349,45.8048707635006],[-86.5982737889767,45.7715458874517],[-86.6181323968857,45.7836408548418],[-86.6354477011154,45.7448444777714],[-86.6617756352139,45.7296490525266],[-86.6736223675608,45.6936557075159],[-86.7101602537568,45.68898789213],[-86.712567730571,45.658663410062],[-86.6871030891852,45.6339700646662],[-86.6503485673128,45.6162289748921],[-86.6227188822156,45.6346952096232],[-86.6282027673841,45.6599462437254],[-86.5917528709263,45.665370460938],[-86.5859457459033,45.70457976367],[-86.5713872060804,45.7161821208673],[-86.5331506613769,45.7110834769904],[-86.5354277297583,45.7468496595958],[-86.4738456425384,45.7644805607541],[-86.436106951608,45.7606534211715],[-86.4247781434812,45.7893551899623],[-86.3518761443416,45.7980351758018],[-86.3494876475716,45.8317962095683],[-86.3282472613336,45.8805554147791],[-86.325089718755,45.9057692109929],[-86.2860214396184,45.9258034561616],[-86.2764161728888,45.9432878723544],[-86.2301638685672,45.9473605230981],[-86.1990930660667,45.9634424157962],[-86.162818259904,45.9539946535166],[-86.1257049130508,45.9644118068016],[-86.0683776825233,45.9651016055463],[-85.9261116689186,45.9322849729882],[-85.9205906952914,45.9506902046223],[-85.8930455884814,45.9670957508217],[-85.8324451405522,45.9677251178289],[-85.8119143742503,45.9800352960368],[-85.6957791724802,45.958877581687],[-85.6546283667071,45.9746000695966],[-85.5917009460859,46.0382972898191],[-85.5345588655816,46.0840670117739],[-85.5072131371132,46.0962469758824],[-85.4531023503888,46.0866938829542],[-85.4272572612191,46.1020588305947],[-85.391202483703,46.0941510918339],[-85.3264608313004,46.0905518662853],[-85.2923526069934,46.0731106464906],[-85.2035666067578,46.0523722090131],[-85.1368152464829,46.0485372598081],[-85.1126453802685,46.0373366392707],[-85.1135864354285,46.2744924782507],[-84.8428104213763,46.273487409423],[-84.5511722125873,46.2740776537288],[-84.5478473591824,46.2450557322848],[-84.3838984361138,46.2443052413427],[-84.3842224139234,46.3025555786409],[-84.4880894256012,46.3028483818249],[-84.5305024559499,46.3320176383983],[-84.5305960372936,46.3609888440869],[-84.4887580132925,46.3608863129774],[-84.4893121169529,46.4385736844756]]],[[[-88.4225989858337,48.1902131569344],[-88.4782480233072,48.1697207357132],[-88.51975880641,48.1479003209606],[-88.5300239626204,48.1567295811234],[-88.6796370170159,48.1173112741821],[-88.7613428900448,48.08642557453],[-88.7723410903338,48.0700724355129],[-88.8268385549462,48.0491658303923],[-88.8672411258146,48.0449893799692],[-88.8954603053982,48.0286659201891],[-88.9930878504591,48.0027425104002],[-89.1091725624494,47.9629643897584],[-89.1779666484184,47.9357067606242],[-89.2195170487511,47.911722828749],[-89.2217268652931,47.869011667446],[-89.1924581428542,47.8331126361054],[-89.1582628456167,47.8236424008972],[-89.1232710104483,47.8284775136189],[-89.0848242748155,47.8438825713545],[-89.0170367177077,47.860456187727],[-88.9120574429554,47.8914102796273],[-88.977378098143,47.8952209231538],[-89.0031343690638,47.9086636262317],[-88.8989648905377,47.953505345707],[-88.8536350370262,47.9652037998528],[-88.8291014454849,47.9805786714663],[-88.7641933040205,47.9837490102072],[-88.6614664288023,48.0153285040791],[-88.5752369963992,48.0630512081745],[-88.5816262783396,48.0906446616268],[-88.4225989858337,48.1902131569344]]]]},"properties":{"OBJECTID":29,"District":"38","Name":"Edward W. McBroom","Layout":"Landscape","Shape__Area":39834672096.27727,"Shape__Length":2812061.2353004785,"MGFVersion":"V26"}},
{"type":"Feature","geometry":{"type":"Polygon","coordinates":[[[-85.5458321545712,42.8544901363921],[-85.5507359396357,42.9410291152456],[-85.5774566173671,42.9619635737481],[-85.6762729998144,42.9632649994008],[-85.7222542984459,42.9373710826177],[-85.762919376591,42.9276465730067],[-85.7821770830792,42.9113226040553],[-85.7821063682096,42.8562963534976],[-85.5458321545712,42.8544901363921]]]},"properties":{"OBJECTID":30,"District":"29","Name":"Winnie Brinks","Layout":"Landscape","Shape__Area":200236667.9753952,"Shape__Length":66412.81762963207,"MGFVersion":"V26"}},
{"type":"Feature","geometry":{"type":"Polygon","coordinates":[[[-85.4111922084698,42.0712642415667],[-85.4135330352685,42.2453047412722],[-85.2969961787035,42.246116187544],[-85.2995568059573,42.4193413703831],[-85.5323340257481,42.4215230737803],[-85.7646920673277,42.4207076609631],[-85.7660664542048,42.2446928617377],[-85.878689870561,42.2448213822873],[-85.8776690530511,42.1572064854573],[-85.7646047287178,42.1572543092824],[-85.7629433396573,42.0693269690919],[-85.4111922084698,42.0712642415667]]]},"properties":{"OBJECTID":31,"District":"19","Name":"Sean McCann","Layout":"Landscape","Shape__Area":1405464168.7941895,"Shape__Length":173496.84975578758,"MGFVersion":"V26"}},
{"type":"Feature","geometry":{"type":"Polygon","coordinates":[[[-83.3208264051163,42.5290245215779],[-83.3264138392497,42.649354546934],[-83.3562808986459,42.6760185627193],[-83.4443740169526,42.6691462689128],[-83.4418546041822,42.6147404563023],[-83.6771108321944,42.6062471001974],[-83.6647811772403,42.4311708168123],[-83.5519071655004,42.4351656983199],[-83.5551723916941,42.4931879343368],[-83.5158657600657,42.4944043242452],[-83.4758306228411,42.4868365702667],[-83.4747007873133,42.4665909715656],[-83.4349142497026,42.4679908282238],[-83.4374954030157,42.5260652077296],[-83.3208264051163,42.5290245215779]]]},"properties":{"OBJECTID":32,"District":"13","Name":"Rosemary Bayer","Layout":"Landscape","Shape__Area":474264817.38853455,"Shape__Length":121346.70020772818,"MGFVersion":"V26"}},
{"type":"Feature","geometry":{"type":"Polygon","coordinates":[[[-83.3128246106763,42.3551796360762],[-83.4300377688878,42.3524648732781],[-83.4318089378132,42.395984714737],[-83.5496668611397,42.3926089131041],[-83.5475476391481,42.349217294462],[-83.5437280062729,42.2624623684225],[-83.4265341917954,42.2653512061341],[-83.4274359308493,42.2874652145151],[-83.3489388920428,42.2891855141721],[-83.3480945965516,42.2674631159883],[-83.3089992082223,42.2682296193233],[-83.2897756504703,42.275896005766],[-83.2911075640745,42.3120496661229],[-83.310867013711,42.3117091024558],[-83.3128246106763,42.3551796360762]]]},"properties":{"OBJECTID":33,"District":"05","Name":"Dayna Polehanki","Layout":"Landscape","Shape__Area":223434005.8227768,"Shape__Length":77576.84188674553,"MGFVersion":"V26"}},
{"type":"Feature","geometry":{"type":"Polygon","coordinates":[[[-83.2142149673166,42.042573266448],[-83.2675934972069,42.0690759542696],[-83.2950583091013,42.0942293780325],[-83.4207610427957,42.0935682980784],[-83.420631385461,42.0877844884065],[-83.5393958437974,42.0855980198149],[-83.6615699815315,42.0845252522895],[-83.6620200147544,42.0700406817437],[-83.7102410229662,42.0693403526014],[-83.7118679033142,42.0836394630822],[-83.7739219414444,42.0824301599043],[-83.7716660300845,42.0026106573897],[-83.886367361361,42.0009709653729],[-83.8860683405752,41.9934626634079],[-84.0046182345861,41.991092805706],[-84.0081522953238,42.0735977739335],[-84.1319631639858,42.0715771123507],[-84.1798349189714,42.0737906242016],[-84.5929360380647,42.0717602171744],[-84.5928050636688,41.9994969926568],[-84.7094388065976,41.9999341187758],[-84.7087109226029,41.6991205231402],[-84.1923184710665,41.7110110821933],[-83.4828138954081,41.7321877978664],[-83.4790534688992,41.7576767408319],[-83.4476422842549,41.7760578887623],[-83.4343041452659,41.8182502594737],[-83.412531544857,41.8253725040195],[-83.3718821134485,41.8764726017273],[-83.3423040909969,41.8796018352626],[-83.319510692502,41.9334543110178],[-83.3015229963014,41.9437350582663],[-83.2628349130784,41.9391810015571],[-83.2521061630025,41.9714949714808],[-83.2117564569562,42.0010801511903],[-83.19345622118,42.0264294648885],[-83.2142149673166,42.042573266448]]]},"properties":{"OBJECTID":34,"District":"16","Name":"Joseph N. Bellino Jr.","Layout":"Landscape","Shape__Area":4332584206.983246,"Shape__Length":420116.4600995153,"MGFVersion":"V26"}},
{"type":"Feature","geometry":{"type":"MultiPolygon","coordinates":[[[[-86.1155689296971,45.047339552362],[-86.1413833039129,45.0404055557969],[-86.1560069697201,45.0047581698254],[-86.1352668088892,44.9970436127729],[-86.0938018771327,45.0072577999583],[-86.0852492146782,45.0395431822532],[-86.1155689296971,45.047339552362]]],[[[-86.0448334168928,45.1593024803142],[-86.0643139590256,45.1401509097624],[-86.0595196576426,45.1024321427394],[-85.9992037198468,45.0541036482652],[-85.9653966496811,45.0662571658928],[-85.9844051902946,45.0858831824459],[-85.9773465476267,45.1388404136322],[-86.0054052211203,45.1557873346366],[-86.0448334168928,45.1593024803142]]],[[[-85.8738031684537,45.442254000104],[-85.8761000196131,45.4262329718022],[-85.8434705920847,45.3926083242932],[-85.8317886384902,45.4199113855661],[-85.8738031684537,45.442254000104]]],[[[-85.6763899365091,45.7462321684593],[-85.6969863264434,45.7358301566654],[-85.6804540893806,45.6960621355439],[-85.6548227308233,45.7158821327422],[-85.6550860838325,45.7384413110705],[-85.6763899365091,45.7462321684593]]],[[[-85.5655119541926,45.7602368972693],[-85.5720848497092,45.7127000730956],[-85.604676578562,45.6817795754114],[-85.6063924667032,45.6353077513447],[-85.6202780637797,45.6250249812293],[-85.6231672145959,45.5848689054376],[-85.5606882786012,45.5717597119051],[-85.491593246102,45.6076029616201],[-85.4903628819885,45.6523769634756],[-85.5047112749505,45.6734644316687],[-85.4938907172619,45.6979820149078],[-85.4991972408621,45.726338257311],[-85.5655119541926,45.7602368972693]]],[[[-84.5748036377516,45.8194686023028],[-84.5818295246552,45.8025121704548],[-84.5499507586875,45.7900727405792],[-84.4823499097477,45.730103644843],[-84.3940296031024,45.7275219465478],[-84.3560470525288,45.7701742335219],[-84.4066535782035,45.7881344691431],[-84.433723910538,45.7867097016862],[-84.5117789427169,45.8109441268408],[-84.5393992976817,45.8079451176975],[-84.5748036377516,45.8194686023028]]],[[[-85.5229611319842,45.8288236559266],[-85.5298394580363,45.8160256469669],[-85.4855794857588,45.7805792040532],[-85.4601172712345,45.7981665308112],[-85.4917604021882,45.8198148561599],[-85.5229611319842,45.8288236559266]]],[[[-84.6358962815091,45.8830909304771],[-84.6500137292899,45.8590528640938],[-84.619705325158,45.8460837416859],[-84.6079678064365,45.8614345961804],[-84.6358962815091,45.8830909304771]]],[[[-84.4289328577615,45.9932662183299],[-84.4196722160023,45.9587444791812],[-84.4005614040795,45.9431827328258],[-84.3731371293389,45.9657754092411],[-84.4289328577615,45.9932662183299]]],[[[-83.6336560122914,46.1036663459105],[-83.7184478814221,46.1013542381074],[-83.728543645571,46.0875885261431],[-83.6779058121659,46.0748159055401],[-83.6878208503577,46.0416101790743],[-83.7600561620587,46.0261101791426],[-83.7804283683161,45.9981463342512],[-83.8063638361045,45.9834534423569],[-83.8247753622409,45.9915284902516],[-83.825380912587,46.0170743190414],[-83.8475468216984,46.0238106478238],[-83.8795607296829,45.9858168645889],[-83.8564395546337,45.9813278088155],[-83.8334825567474,45.9531642328226],[-83.8183883144965,45.9644637997694],[-83.7860944931924,45.9328392689852],[-83.7695143216255,45.9541794222153],[-83.7195900153855,45.9339639115362],[-83.652910971963,45.9426787186375],[-83.6270710377601,45.956388687998],[-83.6168351443637,45.9331906735241],[-83.5858792457121,45.9175699035354],[-83.5286814138177,45.9178950460756],[-83.5100778913816,45.9301295000773],[-83.4998369443012,45.9597672170998],[-83.4728562464795,45.9853928275824],[-83.5063897839301,45.9950752326037],[-83.5408000658498,46.0170510952582],[-83.5539461717448,46.058676966568],[-83.575992922193,46.0836422507327],[-83.6336560122914,46.1036663459105]]],[[[-84.1733760658802,46.3256417700874],[-84.2109589192148,46.3220367170004],[-84.2097281209878,46.2841298859905],[-84.1844208262739,46.2683313216678],[-84.1757167028558,46.2448203443838],[-84.151432467757,46.2234624931314],[-84.1040888644261,46.2512289861345],[-84.1250446180464,46.2752007048524],[-84.1310694518538,46.3076802151786],[-84.1733760658802,46.3256417700874]]],[[[-84.2042634143578,45.6262474004014],[-84.3301618537,45.6644401044857],[-84.3750453401831,45.6555362034922],[-84.4134020054656,45.669553840057],[-84.4172809022406,45.651472032406],[-84.478930878844,45.6566977749328],[-84.5000191626974,45.6736766178774],[-84.5724232746618,45.7101483271008],[-84.6814280151202,45.7561371155304],[-84.7232710091198,45.7683457602939],[-84.7320552730945,45.7883824749627],[-84.7231976616784,45.8466163822165],[-84.7074592543153,45.8600480198668],[-84.734071643104,45.8971926438044],[-84.7169303419653,45.9253315071124],[-84.739566759786,45.9415636935851],[-84.7304480378407,45.9611420165651],[-84.6909632964983,45.9816613090644],[-84.6928126091084,46.0268391761601],[-84.6551675054415,46.0526690851633],[-84.6063326341831,46.0293573054331],[-84.5618427152368,46.0324127424875],[-84.5405248904361,46.0189120854616],[-84.5304231433674,45.9918951591196],[-84.4821789630437,45.9934359649385],[-84.4398367233515,46.0087212931789],[-84.3929966744451,45.9968370177636],[-84.3412658266344,45.9968908313471],[-84.30154030647,45.9756068689665],[-84.266010047116,45.9906096657424],[-84.2166759234104,45.9861607686886],[-84.1799143132087,45.9754283556615],[-84.1169491308079,45.9833077631893],[-84.0674528220523,45.9669163227674],[-84.0273418600225,45.9615413748666],[-84.0040645097775,45.9497500908037],[-83.9785489445173,45.9691218810021],[-83.919057961063,45.9662126538379],[-83.8976817026066,45.9898020544441],[-83.908992768089,46.0116864467379],[-83.9581997249216,46.029652554879],[-83.9778829293417,46.0188836021578],[-84.0036973131159,46.0454337456578],[-84.0248827032936,46.0507581890064],[-84.0722978221873,46.0933571332295],[-84.0606752727652,46.1142392675022],[-84.026713960066,46.1316763274271],[-84.0605038147817,46.1462689487274],[-84.0902997825898,46.1461893074912],[-84.1491750584485,46.1814461300207],[-84.2241881131927,46.1633739181856],[-84.2630884390557,46.1921295107197],[-84.2513517114403,46.218974290911],[-84.2225390490041,46.2266473656385],[-84.1934374316894,46.2670467463688],[-84.2223565423201,46.2974395833435],[-84.2238780120854,46.352630898815],[-84.2543429821555,46.3964234163855],[-84.2609217569454,46.4325447997406],[-84.3284107114806,46.4968989684659],[-84.4155594689768,46.4887385040809],[-84.4553611200686,46.4702180382646],[-84.4567644637741,46.4506445008662],[-84.4893121169529,46.4385736844756],[-84.4887580132925,46.3608863129774],[-84.5305960372936,46.3609888440869],[-84.5305024559499,46.3320176383983],[-84.4880894256012,46.3028483818249],[-84.3842224139234,46.3025555786409],[-84.3838984361138,46.2443052413427],[-84.5478473591824,46.2450557322848],[-84.5511722125873,46.2740776537288],[-84.8428104213763,46.273487409423],[-85.1135864354285,46.2744924782507],[-85.1126453802685,46.0373366392707],[-85.0941197695572,46.0272101313808],[-85.0153215188286,46.01129460297],[-84.9381816749732,45.9572571585542],[-84.9085830352988,45.923201941786],[-84.8388039283382,45.8981702550044],[-84.8383633927079,45.8812791927824],[-84.7500888237566,45.8397600195602],[-84.7236898791128,45.8461467947467],[-84.7321632473077,45.7883605348795],[-84.7727965061394,45.7893771216406],[-84.788042684038,45.7527460612993],[-84.8414061793423,45.7449521683046],[-84.8787171552659,45.7562375033755],[-84.9061307567119,45.7468564256387],[-84.9386602194673,45.7598730059304],[-84.9717174852868,45.7533981499834],[-84.9409807568899,45.7270804144746],[-84.9434715747115,45.7102349513345],[-84.9881998671105,45.6831819424115],[-85.0156761592114,45.6516128270586],[-85.0611619756665,45.6396703198035],[-85.1189706865738,45.5747996451249],[-85.1159837696883,45.5416640715039],[-85.0932396632326,45.4805394699746],[-85.0415643603974,45.4364968602401],[-84.922530336245,45.4223149059364],[-84.9161249053759,45.3930765903885],[-84.9924322684453,45.3680715397208],[-85.0357296100763,45.3627051191784],[-85.1068054079089,45.3665779113756],[-85.1369215293515,45.3735238264448],[-85.2036160930214,45.3618873676218],[-85.2511173192891,45.339391156181],[-85.2717506468817,45.315835303592],[-85.3283628920746,45.3027942591934],[-85.3714167554328,45.2717632055204],[-85.3885279458439,45.2362079509773],[-85.3888358632655,45.2080053193491],[-85.3730509566108,45.1262378672454],[-85.3636799395413,45.1123372426054],[-85.3669714662087,45.0679022992054],[-85.3804476976373,45.046745638967],[-85.3765179720233,45.0012211285848],[-85.3959561194432,44.9307319372859],[-85.4515899524129,44.8534821404612],[-85.4705966219486,44.8171180499486],[-85.4990588557341,44.8044750357891],[-85.5062011418432,44.7659162162517],[-85.5266282738956,44.7476709400598],[-85.5755822572106,44.7589010922292],[-85.559641389223,44.7859376681295],[-85.557210645673,44.8163481660612],[-85.499697400575,44.8563571705039],[-85.4874915479343,44.9587876860133],[-85.4644379714339,44.9618166740656],[-85.4743122934134,44.9909701917947],[-85.5211012685399,44.9731828260583],[-85.5206316436133,44.9597872525833],[-85.5471945074961,44.9009199581064],[-85.5326823295092,44.8733619683331],[-85.5489088568374,44.8632093987721],[-85.5790899158726,44.817725743188],[-85.5954374185022,44.7671119391576],[-85.6397640797167,44.7728238337638],[-85.6332695532152,44.799504581462],[-85.6513842508907,44.832090907882],[-85.6467671305129,44.8809639465016],[-85.6244151086683,44.9220719331033],[-85.6047556473834,44.9383864583087],[-85.5995270757295,44.9899839041874],[-85.6328543155247,44.9663970913582],[-85.6408258854532,44.9888505202866],[-85.5997961349673,45.0215682027359],[-85.5829941989088,45.0710977412022],[-85.6147573458868,45.1271007557328],[-85.5904082308158,45.1532911549463],[-85.5703017566392,45.1551724654304],[-85.5319770778848,45.1766417662006],[-85.5506103107186,45.2108055073151],[-85.5929441711959,45.1783388229395],[-85.6176182367887,45.1870998367361],[-85.655283221488,45.1464699226687],[-85.6815057025792,45.0925392525523],[-85.7051022427383,45.0695453249935],[-85.7411494095644,45.0556863237519],[-85.7797342437984,45.0098236451085],[-85.7809127316067,44.9768032569681],[-85.8098682875088,44.9486428008348],[-85.8746758276501,44.940409881096],[-85.8993632245637,44.9628106905988],[-85.9327766838182,44.9682929112371],[-85.9849287581119,44.9030766994084],[-86.0069667030512,44.8989938591909],[-86.0406814989382,44.9148798198765],[-86.0711578069324,44.8948934438591],[-86.066701417169,44.8185078035447],[-86.0745636723226,44.7780952074978],[-85.9316854528925,44.7782789975528],[-85.8151218272915,44.7745253338225],[-85.8177406103014,44.6734119915875],[-85.8178038818583,44.5129695117873],[-85.3340004166753,44.5123039124633],[-85.3328366997893,44.8123722234276],[-85.3238637186922,44.8467946242326],[-85.291716239684,44.8596083474595],[-84.8473092353243,44.8580365510726],[-84.8497667184701,45.0266505959976],[-84.8573188781857,45.029757488242],[-84.8574519397216,45.1167065648212],[-84.7347989479598,45.1149033954641],[-84.7343032711248,45.2019357209235],[-84.4357590559906,45.198977877777],[-84.246633739622,45.1987177583502],[-84.2475458981316,45.4317355615765],[-84.2520197407865,45.6259979915675],[-84.2042634143578,45.6262474004014]]],[[[-84.2059137990826,46.5362384136266],[-84.2496998431122,46.4998689511247],[-84.2867345565549,46.4785925768439],[-84.2521012508212,46.4671607558843],[-84.2286911399731,46.3930295292265],[-84.1859194949438,46.3648108882837],[-84.175470407539,46.3352359461179],[-84.1254335325167,46.3190177783405],[-84.1185609898542,46.3342463740579],[-84.1924315386675,46.4142610643186],[-84.1792258999355,46.4568973168618],[-84.1511419534927,46.4676004980289],[-84.1484960810353,46.49024668789],[-84.124425327061,46.5206615397278],[-84.1418211221461,46.5314365914144],[-84.1777383003423,46.5230015809911],[-84.2059137990826,46.5362384136266]]]]},"properties":{"OBJECTID":35,"District":"37","Name":"John Damoose","Layout":"Portrait","Shape__Area":11783769519.878143,"Shape__Length":2581509.4568305193,"MGFVersion":"V26"}},
{"type":"Feature","geometry":{"type":"Polygon","coordinates":[[[-83.5737519648798,42.9614744283823],[-83.5757590004183,43.0047609991715],[-83.6042320000596,42.9971619986144],[-83.6198053854603,43.0086733220994],[-83.6159358715611,43.0475005515222],[-83.6461684436292,43.076399600976],[-83.6940505538778,43.0756671827407],[-83.69458064636,43.1343270224954],[-83.9290787916582,43.1327815363425],[-83.9298672554886,42.9497906138446],[-83.92716391956,42.8683434992992],[-83.5709860366995,42.8732734513975],[-83.5737519648798,42.9614744283823]]]},"properties":{"OBJECTID":36,"District":"27","Name":"John Cherry","Layout":"Portrait","Shape__Area":745322354.329956,"Shape__Length":134367.6397070737,"MGFVersion":"V26"}},
{"type":"Feature","geometry":{"type":"Polygon","coordinates":[[[-85.8178038818583,44.5129695117873],[-85.8177406103014,44.6734119915875],[-85.8151218272915,44.7745253338225],[-85.9316854528925,44.7782789975528],[-86.0745636723226,44.7780952074978],[-86.0912518065308,44.7399429936532],[-86.1205059607849,44.7280691530072],[-86.1563768976451,44.7318675431366],[-86.1776245126473,44.7194048762537],[-86.2385287714597,44.7040137701644],[-86.2550657271621,44.6918942353001],[-86.2591235324024,44.6652828157091],[-86.2244384158862,44.5909439035738],[-86.2231406093754,44.5516161822239],[-86.2517745264482,44.4498126998466],[-86.2517722112836,44.4017121079919],[-86.2680054001268,44.3463992215489],[-86.3421020792757,44.2514464443347],[-86.3623029661171,44.2088056983266],[-86.3860708656204,44.1835531740689],[-86.430129020255,44.1194036142897],[-86.4957416383638,44.07875779752],[-86.5147034547798,44.0580203385288],[-86.5026585569072,44.0231581055381],[-86.4629615525156,43.9707023160305],[-86.4475764454959,43.9175437737944],[-86.4469909869298,43.8924135768752],[-86.4320332343004,43.846674174442],[-86.437120247408,43.789722497969],[-86.4556461834723,43.7541340888372],[-86.5284612240005,43.6786127195291],[-86.541134131326,43.6379302070599],[-86.5303453642285,43.5947761568742],[-86.4798287886765,43.5163722414467],[-86.4643132927607,43.4826051497098],[-86.4359587137906,43.3981993841857],[-86.3925840140658,43.3112434795325],[-86.3047333352203,43.1775552213691],[-86.2719148738206,43.1183653251181],[-86.0270267781174,43.1182716734458],[-86.0279344043593,43.2934779240752],[-86.0389530620335,43.2935187666776],[-86.0396820666408,43.4856615881619],[-86.0378753859311,43.8161556178136],[-86.0393599450861,44.050234354534],[-86.0435027293672,44.1670881658102],[-86.0633177466683,44.1678638982601],[-86.060237554385,44.4289687477076],[-85.9394691167717,44.426208502982],[-85.9389332425735,44.5131869534857],[-85.8178038818583,44.5129695117873]]]},"properties":{"OBJECTID":37,"District":"32","Name":"Jon C. Bumstead","Layout":"Portrait","Shape__Area":5510638591.416283,"Shape__Length":460470.87938280596,"MGFVersion":"V26"}},
{"type":"Feature","geometry":{"type":"Polygon","coordinates":[[[-83.9467056492102,43.7386685722959],[-83.9435788906896,43.7631227340387],[-83.9210430085182,43.8166143549536],[-83.9240719210856,43.8566642429135],[-83.9159815928979,43.8997730326018],[-83.8907218445222,43.9230867653959],[-83.8404933620311,43.9946403406844],[-83.8078499033426,43.9971718549176],[-83.7616799760062,43.9853290628378],[-83.7399139167758,44.005405753139],[-83.6800888972624,43.9945390431286],[-83.6896439129772,44.0255496632775],[-83.6457247424547,44.0532427545231],[-83.5806771829338,44.0497463528973],[-83.5884522039706,44.0857197822243],[-83.5642031588157,44.1055298374425],[-83.5670196309347,44.1580369538721],[-83.548355162984,44.2285905785137],[-83.5347479542805,44.251871865599],[-83.5021879431869,44.2760301973502],[-83.4688407652214,44.2796095304807],[-83.4255106778,44.272616407509],[-83.4157768381409,44.292911041586],[-83.3732838900037,44.3279016313767],[-83.3361964250328,44.3328841990273],[-83.3341226865753,44.3698994189183],[-83.32021378242,44.4061624165759],[-83.3273680158649,44.4301304879006],[-83.3078411803933,44.540967688034],[-83.314779189463,44.6076862938744],[-83.29115660342,44.6492738656345],[-83.2744227939319,44.7145693948192],[-83.2983647573074,44.7536192661144],[-83.2911357074021,44.7670253899616],[-83.3011245025793,44.8304722189489],[-83.3216119632012,44.8539353618105],[-83.3203003135039,44.8804306935323],[-83.3648972281584,44.8906175454985],[-83.4304395735504,44.93029731757],[-83.4625946095523,44.9941282107277],[-83.4530198120738,45.0357779817617],[-83.4332557834802,45.057882377507],[-83.3846813463564,45.0767652203495],[-83.3397976170251,45.0413462300483],[-83.2670824389474,45.0229177775444],[-83.2770771491063,45.0449924237889],[-83.3078434621295,45.0493571659702],[-83.3164658570826,45.0752708835871],[-83.3103151443484,45.1099792448258],[-83.3171622028676,45.1421839921455],[-83.3595080428192,45.1628788431978],[-83.3795328996244,45.2020532031416],[-83.413068885871,45.2409588116855],[-83.3814362308543,45.2694606982539],[-83.443212525711,45.3060943866433],[-83.4887821599451,45.3573680648736],[-83.4947502989111,45.3394247747746],[-83.5382436535445,45.3582734213826],[-83.5688562391766,45.3474127412471],[-83.598086938241,45.3517656632355],[-83.6984328801626,45.3967219632495],[-83.7162814926152,45.414924107951],[-83.7451088062586,45.4036315101236],[-83.7735211399269,45.4073352775523],[-83.8401514399225,45.4345780351721],[-83.9076692002396,45.4848899351406],[-83.9708077208927,45.4953589804877],[-84.092569046888,45.4954768823725],[-84.1229439057214,45.5248383931439],[-84.1265783946502,45.5563991869792],[-84.2042634143578,45.6262474004014],[-84.2520197407865,45.6259979915675],[-84.2475458981316,45.4317355615765],[-84.246633739622,45.1987177583502],[-84.4357590559906,45.198977877777],[-84.7343032711248,45.2019357209235],[-84.7347989479598,45.1149033954641],[-84.8574519397216,45.1167065648212],[-84.8573188781857,45.029757488242],[-84.8497667184701,45.0266505959976],[-84.8473092353243,44.8580365510726],[-85.291716239684,44.8596083474595],[-85.3238637186922,44.8467946242326],[-85.3328366997893,44.8123722234276],[-85.3340004166753,44.5123039124633],[-85.8178038818583,44.5129695117873],[-85.9389332425735,44.5131869534857],[-85.9394691167717,44.426208502982],[-86.060237554385,44.4289687477076],[-86.0633177466683,44.1678638982601],[-86.0435027293672,44.1670881658102],[-85.9016846991421,44.1644972597616],[-85.683855730537,44.1646246289813],[-85.2067235191806,44.1649188200842],[-84.770914696007,44.1607237230255],[-84.3680385820011,44.1605384039468],[-84.1661070471623,44.1617880282102],[-84.1663769877292,43.9969007656254],[-84.0454087127739,43.996974328568],[-84.0472172086587,43.7392469005127],[-83.9467056492102,43.7386685722959]]]},"properties":{"OBJECTID":38,"District":"36","Name":"Michele Hoitenga","Layout":"Landscape","Shape__Area":21560383025.473557,"Shape__Length":1139920.1661663337,"MGFVersion":"V26"}}
]}